{
  "type": "FeatureCollection",
  "features": [
    {
      "type": "Feature",
      "properties": {
        "norad_id": 26766,
        "name": "INTELSAT 10 (IS-10)",
        "group": "intelsat",
        "lat": 4.666348724121858,
        "lon": 93.60788507734446,
        "alt_km": 36156.34651189278,
        "timestamp": "2025-12-09T14:52:25.833352+00:00",
        "meta_object_name": "INTELSAT 10 (IS-10)",
        "meta_object_id": "2001-019A",
        "meta_epoch": "2025-12-08T12:50:38.847840",
        "meta_mean_motion": 0.99078973,
        "meta_eccentricity": 0.0007853,
        "meta_inclination": 8.6199,
        "meta_ra_of_asc_node": 61.1985,
        "meta_arg_of_pericenter": 221.9209,
        "meta_mean_anomaly": 143.9126,
        "meta_ephemeris_type": 0,
        "meta_classification_type": "U",
        "meta_norad_cat_id": 26766,
        "meta_element_set_no": 999,
        "meta_rev_at_epoch": 4369,
        "meta_bstar": 0,
        "meta_mean_motion_dot": -2.74e-06,
        "meta_mean_motion_ddot": 0,
        "tle_line1": "1 26766U 01019A   25342.53517185 -.00000274  00000+0  00000+0 0  9991",
        "tle_line2": "2 26766   8.6199  61.1985 0007853 221.9209 143.9126  0.99078973 43690"
      },
      "geometry": {
        "type": "Point",
        "coordinates": [
          93.60788507734446,
          4.666348724121858
        ]
      }
    },
    {
      "type": "Feature",
      "properties": {
        "norad_id": 26900,
        "name": "INTELSAT 902 (IS-902)",
        "group": "intelsat",
        "lat": 0.23302548172651555,
        "lon": -108.45743977990017,
        "alt_km": 35769.090891804975,
        "timestamp": "2025-12-09T14:52:25.833376+00:00",
        "meta_object_name": "INTELSAT 902 (IS-902)",
        "meta_object_id": "2001-039A",
        "meta_epoch": "2025-12-01T16:59:59.311968",
        "meta_mean_motion": 1.00270327,
        "meta_eccentricity": 0.00043097,
        "meta_inclination": 5.6187,
        "meta_ra_of_asc_node": 74.2002,
        "meta_arg_of_pericenter": 175.119,
        "meta_mean_anomaly": 26.3816,
        "meta_ephemeris_type": 0,
        "meta_classification_type": "U",
        "meta_norad_cat_id": 26900,
        "meta_element_set_no": 999,
        "meta_rev_at_epoch": 8871,
        "meta_bstar": 0,
        "meta_mean_motion_dot": -2.63e-06,
        "meta_mean_motion_ddot": 0,
        "tle_line1": "1 26900U 01039A   25335.70832537 -.00000263  00000+0  00000+0 0  9993",
        "tle_line2": "2 26900   5.6187  74.2002 0004309 175.1190  26.3816  1.00270327 88713"
      },
      "geometry": {
        "type": "Point",
        "coordinates": [
          -108.45743977990017,
          0.23302548172651555
        ]
      }
    },
    {
      "type": "Feature",
      "properties": {
        "norad_id": 27380,
        "name": "INTELSAT 904 (IS-904)",
        "group": "intelsat",
        "lat": -2.0825432980514296,
        "lon": -89.94482956566985,
        "alt_km": 35780.75357821944,
        "timestamp": "2025-12-09T14:52:25.833393+00:00",
        "meta_object_name": "INTELSAT 904 (IS-904)",
        "meta_object_id": "2002-007A",
        "meta_epoch": "2025-12-08T15:09:58.269024",
        "meta_mean_motion": 1.00268358,
        "meta_eccentricity": 0.0001612,
        "meta_inclination": 6.4433,
        "meta_ra_of_asc_node": 71.4765,
        "meta_arg_of_pericenter": 211.5706,
        "meta_mean_anomaly": 350.5417,
        "meta_ephemeris_type": 0,
        "meta_classification_type": "U",
        "meta_norad_cat_id": 27380,
        "meta_element_set_no": 999,
        "meta_rev_at_epoch": 8717,
        "meta_bstar": 0,
        "meta_mean_motion_dot": -2.26e-06,
        "meta_mean_motion_ddot": 0,
        "tle_line1": "1 27380U 02007A   25342.63192441 -.00000226  00000+0  00000+0 0  9994",
        "tle_line2": "2 27380   6.4433  71.4765 0001612 211.5706 350.5417  1.00268358 87175"
      },
      "geometry": {
        "type": "Point",
        "coordinates": [
          -89.94482956566985,
          -2.0825432980514296
        ]
      }
    },
    {
      "type": "Feature",
      "properties": {
        "norad_id": 27426,
        "name": "DIRECTV 5 (TEMPO 1)",
        "group": "intelsat",
        "lat": 4.0110461240092095,
        "lon": -168.37929502125124,
        "alt_km": 35784.45636578496,
        "timestamp": "2025-12-09T14:52:25.833407+00:00",
        "meta_object_name": "DIRECTV 5 (TEMPO 1)",
        "meta_object_id": "2002-023A",
        "meta_epoch": "2025-12-09T07:43:19.765920",
        "meta_mean_motion": 1.00272011,
        "meta_eccentricity": 0.00039115,
        "meta_inclination": 4.3936,
        "meta_ra_of_asc_node": 77.6915,
        "meta_arg_of_pericenter": 200.425,
        "meta_mean_anomaly": 165.9142,
        "meta_ephemeris_type": 0,
        "meta_classification_type": "U",
        "meta_norad_cat_id": 27426,
        "meta_element_set_no": 999,
        "meta_rev_at_epoch": 8622,
        "meta_bstar": 0,
        "meta_mean_motion_dot": -5.6e-07,
        "meta_mean_motion_ddot": 0,
        "tle_line1": "1 27426U 02023A   25343.32175655 -.00000056  00000+0  00000+0 0  9999",
        "tle_line2": "2 27426   4.3936  77.6915 0003911 200.4250 165.9142  1.00272011 86220"
      },
      "geometry": {
        "type": "Point",
        "coordinates": [
          -168.37929502125124,
          4.0110461240092095
        ]
      }
    },
    {
      "type": "Feature",
      "properties": {
        "norad_id": 27438,
        "name": "INTELSAT 905 (IS-905)",
        "group": "intelsat",
        "lat": 6.276771555813852,
        "lon": 164.49514753650328,
        "alt_km": 35787.11291931602,
        "timestamp": "2025-12-09T14:52:25.833421+00:00",
        "meta_object_name": "INTELSAT 905 (IS-905)",
        "meta_object_id": "2002-027A",
        "meta_epoch": "2025-12-09T06:41:55.708800",
        "meta_mean_motion": 1.002717,
        "meta_eccentricity": 0.00028585,
        "meta_inclination": 6.2772,
        "meta_ra_of_asc_node": 72.0945,
        "meta_arg_of_pericenter": 191.2196,
        "meta_mean_anomaly": 138.2332,
        "meta_ephemeris_type": 0,
        "meta_classification_type": "U",
        "meta_norad_cat_id": 27438,
        "meta_element_set_no": 999,
        "meta_rev_at_epoch": 4945,
        "meta_bstar": 0,
        "meta_mean_motion_dot": 9.5e-07,
        "meta_mean_motion_ddot": 0,
        "tle_line1": "1 27438U 02027A   25343.27911700  .00000095  00000+0  00000+0 0  9991",
        "tle_line2": "2 27438   6.2772  72.0945 0002858 191.2196 138.2332  1.00271700 49451"
      },
      "geometry": {
        "type": "Point",
        "coordinates": [
          164.49514753650328,
          6.276771555813852
        ]
      }
    },
    {
      "type": "Feature",
      "properties": {
        "norad_id": 27445,
        "name": "GALAXY 3C (G-3C)",
        "group": "intelsat",
        "lat": 2.6107678579782645,
        "lon": -153.09612134481006,
        "alt_km": 35781.84626219259,
        "timestamp": "2025-12-09T14:52:25.833433+00:00",
        "meta_object_name": "GALAXY 3C (G-3C)",
        "meta_object_id": "2002-030A",
        "meta_epoch": "2025-12-09T07:04:13.029600",
        "meta_mean_motion": 1.00270961,
        "meta_eccentricity": 0.00011103,
        "meta_inclination": 3.2558,
        "meta_ra_of_asc_node": 80.5395,
        "meta_arg_of_pericenter": 98.9628,
        "meta_mean_anomaly": 269.9771,
        "meta_ephemeris_type": 0,
        "meta_classification_type": "U",
        "meta_norad_cat_id": 27445,
        "meta_element_set_no": 999,
        "meta_rev_at_epoch": 4459,
        "meta_bstar": 0,
        "meta_mean_motion_dot": -1.51e-06,
        "meta_mean_motion_ddot": 0,
        "tle_line1": "1 27445U 02030A   25343.29459525 -.00000151  00000+0  00000+0 0  9991",
        "tle_line2": "2 27445   3.2558  80.5395 0001110  98.9628 269.9771  1.00270961 44591"
      },
      "geometry": {
        "type": "Point",
        "coordinates": [
          -153.09612134481006,
          2.6107678579782645
        ]
      }
    },
    {
      "type": "Feature",
      "properties": {
        "norad_id": 27513,
        "name": "INTELSAT 906 (IS-906)",
        "group": "intelsat",
        "lat": -4.974010010360421,
        "lon": 6.003457007853211,
        "alt_km": 35791.72697276017,
        "timestamp": "2025-12-09T14:52:25.833446+00:00",
        "meta_object_name": "INTELSAT 906 (IS-906)",
        "meta_object_id": "2002-041A",
        "meta_epoch": "2025-12-09T05:19:04.029024",
        "meta_mean_motion": 1.00270918,
        "meta_eccentricity": 0.00061012,
        "meta_inclination": 5.3199,
        "meta_ra_of_asc_node": 75.2733,
        "meta_arg_of_pericenter": 190.0162,
        "meta_mean_anomaly": 316.8281,
        "meta_ephemeris_type": 0,
        "meta_classification_type": "U",
        "meta_norad_cat_id": 27513,
        "meta_element_set_no": 999,
        "meta_rev_at_epoch": 8512,
        "meta_bstar": 0,
        "meta_mean_motion_dot": 1.4e-07,
        "meta_mean_motion_ddot": 0,
        "tle_line1": "1 27513U 02041A   25343.22157441  .00000014  00000+0  00000+0 0  9991",
        "tle_line2": "2 27513   5.3199  75.2733 0006101 190.0162 316.8281  1.00270918 85124"
      },
      "geometry": {
        "type": "Point",
        "coordinates": [
          6.003457007853211,
          -4.974010010360421
        ]
      }
    }
  ]
}